GALAXY 3C (G-3C)        
1 27445U 02030A   26164.13397565 -.00000142  00000+0  00000+0 0  9991
2 27445   3.7203  78.0309 0001571  34.8216 101.9819  1.00270875 46452
INTELSAT 906 (IS-906)   
1 27513U 02041A   26163.84777111  .00000022  00000+0  00000+0 0  9991
2 27513   5.7921  72.9756 0004656   2.7202 194.8044  1.00272055 86987
NIMIQ 2                 
1 27632U 02062A   26164.24124726 -.00000065  00000+0  00000+0 0  9997
2 27632   9.4370  56.9416 0005420  21.2451 161.0265  1.00271657 44145
USA 167                 
1 27691U 03008A   26164.22077525  .00000006  00000+0  00000+0 0  9999
2 27691  10.9533  43.4438 0003820 310.9666 224.9018  1.00273055  6733
USA 169 (MILSTAR-2 4)   
1 27711U 03012A   26163.42869662 -.00000228  00000+0  00000+0 0  9996
2 27711  12.3423  29.8796 0100621   9.0638 168.2670  1.00273707 32903
ASIASAT 4               
1 27718U 03014A   26164.21517910 -.00000213  00000+0  00000+0 0  9993
2 27718   4.6946  75.7970 0002975  10.0573  40.6896  1.00271278 45268
HELLAS-SAT 2            
1 27811U 03020A   26163.97574869 -.00000077  00000+0  00000+0 0  9990
2 27811   7.3440  67.9336 0002392  17.7831 156.8356  1.00271061 42802
THURAYA-2               
1 27825U 03026A   26164.27157847  .00000129  00000+0  00000+0 0  9995
2 27825   8.8346  31.9963 0003128   8.7136   2.6419  1.00272394 84311
OPTUS C1                
1 27831U 03028B   26163.96657147 -.00000143  00000+0  00000+0 0  9994
2 27831   6.8788  69.4599 0005474   9.4427 326.0852  1.00272844 53011
USA 170                 
1 27875U 03040A   26163.83992719  .00000131  00000+0  00000+0 0  9995
2 27875  10.4916  47.9884 0002225  64.2538 115.6114  1.00267655 32951
GALAXY 13 (HORIZONS-1)  
1 27954U 03044A   26164.29046497  .00000144  00000+0  00000+0 0  9995
2 27954   1.4098  83.9135 0002283 347.3239 144.9411  1.00269279 46534
YAMAL 202               
1 28089U 03053A   26163.58237433 -.00000070  00000+0  00000+0 0  9997
2 28089   6.3301  70.9950 0003056  17.7239 185.4205  1.00270704 82652
UFO 11 (USA 174)        
1 28117U 03057A   26164.12663806 -.00000100  00000+0  00000+0 0  9995
2 28117   8.9308  33.8495 0002629  51.8569 296.9230  1.00274523 82403
USA 176 (DSP 22)        
1 28158U 04004A   26162.97340249 -.00000286  00000+0  00000+0 0  9992
2 28158  12.0550  26.1076 0001239 290.9902 243.8917  1.00406369 32881
ABS-4 (MOBISAT-1)       
1 28184U 04007A   26163.80719475  .00000048  00000+0  00000+0 0  9993
2 28184   6.0312  72.0608 0005197   7.1967 173.4178  1.00272474 52298
INTELSAT 10-02          
1 28358U 04022A   26164.26265176  .00000001  00000+0  00000+0 0  9997
2 28358   0.0107 328.0771 0000154 237.9101 149.1356  1.00269830 80519
ANIK F2                 
1 28378U 04027A   26164.19975383 -.00000039  00000+0  00000+0 0  9996
2 28378   3.2765  79.4986 0004022   6.3672 136.4356  1.00271241 41223
AMC-15                  
1 28446U 04041A   26164.24211394 -.00000076  00000+0  00000+0 0  9990
2 28446   0.0205 322.1323 0002113 130.2949 151.2549  1.00271509 79260
NSS-10                  
1 28526U 05003A   26164.04162356 -.00000243  00000+0  00000+0 0  9995
2 28526   6.4388  70.5028 0002689   1.9907 166.4100  1.00271195 53111
INMARSAT 4-F1           
1 28628U 05009A   26163.94281034  .00000042  00000+0  00000+0 0  9993
2 28628   5.1624  42.7488 0002508  44.9856 331.0651  1.00271870 77638
DIRECTV 8               
1 28659U 05019A   26164.20577536  .00000014  00000+0  00000+0 0  9992
2 28659   0.0236  65.5098 0002775  19.9538 131.0861  1.00270772 77035
GALAXY 28 (G-28)        
1 28702U 05022A   26164.25753840 -.00000190  00000+0  00000+0 0  9990
2 28702   3.2890  78.9815 0002875   1.2245 246.9832  1.00271413 51938
THAICOM 4               
1 28786U 05028A   26163.78752720 -.00000348  00000+0  00000+0 0  9996
2 28786   0.2337  85.9189 0001653 350.9687 227.2353  1.00269613 52202
ANIK F1R                
1 28868U 05036A   26163.88517396 -.00000064  00000+0  00000+0 0  9990
2 28868   4.3014  76.6314 0004059 357.9876  37.9749  1.00270596 46410
SYRACUSE 3A             
1 28885U 05041B   26163.91564291  .00000139  00000+0  00000+0 0  9997
2 28885   4.6323  75.8907 0003042 346.3556 215.2680  1.00273192 75706
INMARSAT 4-F2           
1 28899U 05044A   26164.00608262 -.00000252  00000+0  00000+0 0  9990
2 28899   5.0893  43.7049 0002767  35.1670 328.1385  1.00270846 75486
METEOSAT-9 (MSG-2)      
1 28912U 05049B   26163.77290047  .00000130  00000+0  00000+0 0  9996
2 28912   9.3512  54.2102 0001546 347.3160 183.4652  1.00270154  6957
EUTELSAT 174A           
1 28924U 05052A   26163.60600409  .00000020  00000+0  00000+0 0  9990
2 28924   4.2074  76.5820 0006152   5.1262 211.3516  1.00270224 52286
ECHOSTAR 10             
1 28935U 06003A   26164.24107392 -.00000043  00000+0  00000+0 0  9999
2 28935   0.0172 339.9947 0001509  75.8130 182.3493  1.00270500 74424
SPAINSAT                
1 28945U 06007A   26163.35982611 -.00000202  00000+0  00000+0 0  9997
2 28945   0.5503  86.6078 0004673 353.8904 279.5639  1.00270904 74173
JCSAT-5A                
1 29045U 06010A   26164.28906314 -.00000316  00000+0  00000+0 0  9998
2 29045   1.0990  84.2553 0001871  15.9269  37.5311  1.00270850 73730
ASTRA 1KR               
1 29055U 06012A   26164.26663845  .00000131  00000+0  00000+0 0  9992
2 29055   0.4634  83.1985 0003289 353.8222 299.5358  1.00269705 45652
